[{"OBJECT_NAME":"AMAZONAS 5","OBJECT_ID":"2017-053A","EPOCH":"2026-04-26T11:33:59.020704","MEAN_MOTION":1.00271381,"ECCENTRICITY":0.0004227,"INCLINATION":0.0379,"RA_OF_ASC_NODE":311.1316,"ARG_OF_PERICENTER":48.5512,"MEAN_ANOMALY":327.3061,"EPHEMERIS_TYPE":0,"CLASSIFICATION_TYPE":"U","NORAD_CAT_ID":42934,"ELEMENT_SET_NO":999,"REV_AT_EPOCH":3152,"BSTAR":0,"MEAN_MOTION_DOT":-2.95e-6,"MEAN_MOTION_DDOT":0},{"OBJECT_NAME":"ASIASAT 9","OBJECT_ID":"2017-057A","EPOCH":"2026-04-24T17:39:18.190944","MEAN_MOTION":1.00270027,"ECCENTRICITY":0.00018753,"INCLINATION":0.0111,"RA_OF_ASC_NODE":267.8032,"ARG_OF_PERICENTER":130.5278,"MEAN_ANOMALY":201.3674,"EPHEMERIS_TYPE":0,"CLASSIFICATION_TYPE":"U","NORAD_CAT_ID":42942,"ELEMENT_SET_NO":999,"REV_AT_EPOCH":3132,"BSTAR":0,"MEAN_MOTION_DOT":-3.74e-6,"MEAN_MOTION_DDOT":0},{"OBJECT_NAME":"INTELSAT 37E (IS-37E)","OBJECT_ID":"2017-059A","EPOCH":"2026-04-26T10:03:37.011168","MEAN_MOTION":1.00273233,"ECCENTRICITY":0.0002164,"INCLINATION":0.0177,"RA_OF_ASC_NODE":247.0728,"ARG_OF_PERICENTER":175.3145,"MEAN_ANOMALY":284.9353,"EPHEMERIS_TYPE":0,"CLASSIFICATION_TYPE":"U","NORAD_CAT_ID":42950,"ELEMENT_SET_NO":999,"REV_AT_EPOCH":3154,"BSTAR":0,"MEAN_MOTION_DOT":-1.53e-6,"MEAN_MOTION_DDOT":0},{"OBJECT_NAME":"BSAT-4A","OBJECT_ID":"2017-059B","EPOCH":"2026-04-26T12:22:39.352800","MEAN_MOTION":1.00269394,"ECCENTRICITY":0.0004555,"INCLINATION":0.073,"RA_OF_ASC_NODE":56.1622,"ARG_OF_PERICENTER":350.379,"MEAN_ANOMALY":103.4617,"EPHEMERIS_TYPE":0,"CLASSIFICATION_TYPE":"U","NORAD_CAT_ID":42951,"ELEMENT_SET_NO":999,"REV_AT_EPOCH":3128,"BSTAR":0,"MEAN_MOTION_DOT":-3.62e-6,"MEAN_MOTION_DDOT":0},{"OBJECT_NAME":"QZS-4 (MICHIBIKI-4)","OBJECT_ID":"2017-062A","EPOCH":"2026-04-22T16:00:20.725056","MEAN_MOTION":1.00266456,"ECCENTRICITY":0.07466255,"INCLINATION":40.1416,"RA_OF_ASC_NODE":344.1915,"ARG_OF_PERICENTER":270.8161,"MEAN_ANOMALY":335.9811,"EPHEMERIS_TYPE":0,"CLASSIFICATION_TYPE":"U","NORAD_CAT_ID":42965,"ELEMENT_SET_NO":999,"REV_AT_EPOCH":3124,"BSTAR":0,"MEAN_MOTION_DOT":-3.26e-6,"MEAN_MOTION_DDOT":0},{"OBJECT_NAME":"SES-11 (ECHOSTAR 105)","OBJECT_ID":"2017-063A","EPOCH":"2026-04-26T11:21:22.730400","MEAN_MOTION":1.00269637,"ECCENTRICITY":0.0002915,"INCLINATION":0.0192,"RA_OF_ASC_NODE":66.349,"ARG_OF_PERICENTER":356.4652,"MEAN_ANOMALY":217.0532,"EPHEMERIS_TYPE":0,"CLASSIFICATION_TYPE":"U","NORAD_CAT_ID":42967,"ELEMENT_SET_NO":999,"REV_AT_EPOCH":3120,"BSTAR":0,"MEAN_MOTION_DOT":0,"MEAN_MOTION_DDOT":0},{"OBJECT_NAME":"KOREASAT 5A","OBJECT_ID":"2017-067A","EPOCH":"2026-04-26T12:23:39.258240","MEAN_MOTION":1.00272729,"ECCENTRICITY":9.79e-5,"INCLINATION":0.0132,"RA_OF_ASC_NODE":278.3662,"ARG_OF_PERICENTER":111.6279,"MEAN_ANOMALY":123.5891,"EPHEMERIS_TYPE":0,"CLASSIFICATION_TYPE":"U","NORAD_CAT_ID":42984,"ELEMENT_SET_NO":999,"REV_AT_EPOCH":3101,"BSTAR":0,"MEAN_MOTION_DOT":-3.7e-6,"MEAN_MOTION_DDOT":0},{"OBJECT_NAME":"ALCOMSAT 1","OBJECT_ID":"2017-078A","EPOCH":"2026-04-26T10:01:37.202016","MEAN_MOTION":1.00272552,"ECCENTRICITY":0.0002507,"INCLINATION":0.0209,"RA_OF_ASC_NODE":181.3985,"ARG_OF_PERICENTER":192.6942,"MEAN_ANOMALY":325.9241,"EPHEMERIS_TYPE":0,"CLASSIFICATION_TYPE":"U","NORAD_CAT_ID":43039,"ELEMENT_SET_NO":999,"REV_AT_EPOCH":3077,"BSTAR":0,"MEAN_MOTION_DOT":-1.98e-6,"MEAN_MOTION_DDOT":0},{"OBJECT_NAME":"SBIRS GEO-3 (USA 282)","OBJECT_ID":"2018-009A","EPOCH":"2026-04-26T11:01:38.596800","MEAN_MOTION":1.00272089,"ECCENTRICITY":0.0002237,"INCLINATION":2.152,"RA_OF_ASC_NODE":9.6392,"ARG_OF_PERICENTER":17.1672,"MEAN_ANOMALY":193.6599,"EPHEMERIS_TYPE":0,"CLASSIFICATION_TYPE":"U","NORAD_CAT_ID":43162,"ELEMENT_SET_NO":999,"REV_AT_EPOCH":3032,"BSTAR":0,"MEAN_MOTION_DOT":1.17e-6,"MEAN_MOTION_DDOT":0},{"OBJECT_NAME":"AL YAH 3","OBJECT_ID":"2018-012A","EPOCH":"2026-04-26T10:02:59.569728","MEAN_MOTION":1.00272245,"ECCENTRICITY":0.0004283,"INCLINATION":1.4198,"RA_OF_ASC_NODE":83.6801,"ARG_OF_PERICENTER":314.6586,"MEAN_ANOMALY":306.7352,"EPHEMERIS_TYPE":0,"CLASSIFICATION_TYPE":"U","NORAD_CAT_ID":43174,"ELEMENT_SET_NO":999,"REV_AT_EPOCH":3032,"BSTAR":0,"MEAN_MOTION_DOT":-1.66e-6,"MEAN_MOTION_DDOT":0},{"OBJECT_NAME":"SES-14","OBJECT_ID":"2018-012B","EPOCH":"2026-04-26T09:55:07.824000","MEAN_MOTION":1.00272597,"ECCENTRICITY":8.79e-5,"INCLINATION":0.0426,"RA_OF_ASC_NODE":52.9388,"ARG_OF_PERICENTER":336.97,"MEAN_ANOMALY":285.8004,"EPHEMERIS_TYPE":0,"CLASSIFICATION_TYPE":"U","NORAD_CAT_ID":43175,"ELEMENT_SET_NO":999,"REV_AT_EPOCH":650,"BSTAR":0,"MEAN_MOTION_DOT":-2.91e-6,"MEAN_MOTION_DDOT":0},{"OBJECT_NAME":"GOES 17","OBJECT_ID":"2018-022A","EPOCH":"2026-04-26T11:25:52.300128","MEAN_MOTION":1.00272021,"ECCENTRICITY":6.56e-5,"INCLINATION":0.8069,"RA_OF_ASC_NODE":86.4035,"ARG_OF_PERICENTER":273.4258,"MEAN_ANOMALY":296.6261,"EPHEMERIS_TYPE":0,"CLASSIFICATION_TYPE":"U","NORAD_CAT_ID":43226,"ELEMENT_SET_NO":999,"REV_AT_EPOCH":2990,"BSTAR":0,"MEAN_MOTION_DOT":-1.94e-6,"MEAN_MOTION_DDOT":0},{"OBJECT_NAME":"HISPASAT 30W-6","OBJECT_ID":"2018-023A","EPOCH":"2026-04-26T10:00:07.346016","MEAN_MOTION":1.00268387,"ECCENTRICITY":0.0006282,"INCLINATION":0.0229,"RA_OF_ASC_NODE":25.4811,"ARG_OF_PERICENTER":14.5899,"MEAN_ANOMALY":294.381,"EPHEMERIS_TYPE":0,"CLASSIFICATION_TYPE":"U","NORAD_CAT_ID":43228,"ELEMENT_SET_NO":999,"REV_AT_EPOCH":2988,"BSTAR":0,"MEAN_MOTION_DOT":0,"MEAN_MOTION_DDOT":0},{"OBJECT_NAME":"SUPERBIRD-B3","OBJECT_ID":"2018-033A","EPOCH":"2026-04-26T12:00:38.867040","MEAN_MOTION":1.00271394,"ECCENTRICITY":0.0001018,"INCLINATION":0.0139,"RA_OF_ASC_NODE":267.2996,"ARG_OF_PERICENTER":145.9637,"MEAN_ANOMALY":143.399,"EPHEMERIS_TYPE":0,"CLASSIFICATION_TYPE":"U","NORAD_CAT_ID":43271,"ELEMENT_SET_NO":999,"REV_AT_EPOCH":2954,"BSTAR":0,"MEAN_MOTION_DOT":-1.05e-6,"MEAN_MOTION_DDOT":0},{"OBJECT_NAME":"HYLAS 4","OBJECT_ID":"2018-033B","EPOCH":"2026-04-26T11:41:28.304160","MEAN_MOTION":1.00268486,"ECCENTRICITY":0.000178,"INCLINATION":0.0189,"RA_OF_ASC_NODE":117.3191,"ARG_OF_PERICENTER":286.5923,"MEAN_ANOMALY":312.4836,"EPHEMERIS_TYPE":0,"CLASSIFICATION_TYPE":"U","NORAD_CAT_ID":43272,"ELEMENT_SET_NO":999,"REV_AT_EPOCH":2954,"BSTAR":0,"MEAN_MOTION_DOT":0,"MEAN_MOTION_DDOT":0},{"OBJECT_NAME":"IRNSS-1I","OBJECT_ID":"2018-035A","EPOCH":"2026-04-23T23:08:38.874048","MEAN_MOTION":1.00274138,"ECCENTRICITY":0.00183298,"INCLINATION":29.052,"RA_OF_ASC_NODE":75.0297,"ARG_OF_PERICENTER":186.8735,"MEAN_ANOMALY":352.2911,"EPHEMERIS_TYPE":0,"CLASSIFICATION_TYPE":"U","NORAD_CAT_ID":43286,"ELEMENT_SET_NO":999,"REV_AT_EPOCH":2953,"BSTAR":0,"MEAN_MOTION_DOT":8.4e-7,"MEAN_MOTION_DDOT":0},{"OBJECT_NAME":"USA 283","OBJECT_ID":"2018-036A","EPOCH":"2026-04-23T10:54:37.765728","MEAN_MOTION":1.00268619,"ECCENTRICITY":2.4e-5,"INCLINATION":0.0106,"RA_OF_ASC_NODE":233.1643,"ARG_OF_PERICENTER":28.0848,"MEAN_ANOMALY":248.0034,"EPHEMERIS_TYPE":0,"CLASSIFICATION_TYPE":"U","NORAD_CAT_ID":43339,"ELEMENT_SET_NO":999,"REV_AT_EPOCH":2474,"BSTAR":0,"MEAN_MOTION_DOT":0,"MEAN_MOTION_DDOT":0}]
